CUTE-1 (CO-55)          
1 27844U 03031E   26167.26444773  .00000236  00000+0  12107-3 0  9995
2 27844  98.6736 175.8349 0009467 180.6624 179.4544 14.24335232191549
CUBESAT XI-IV (CO-57)   
1 27848U 03031J   26166.97130938  .00000200  00000+0  10702-3 0  9991
2 27848  98.6765 175.2591 0008944 200.7616 159.3200 14.23620242191208
CUBESAT XI-V            
1 28895U 05043F   26166.90778411  .00001212  00000+0  19838-3 0  9999
2 28895  98.2984 322.5028 0013554 204.9214 155.1340 14.72628612101567
CUTE-1.7+APD II (CO-65) 
1 32785U 08021C   26167.25441198  .00003812  00000+0  24216-3 0  9993
2 32785  97.8271 148.6535 0009882  42.0213 318.1772 15.09444415985055
CANX-2                  
1 32790U 08021H   26166.89259205  .00004088  00000+0  28757-3 0  9994
2 32790  97.8632 146.6449 0011445  54.1289 306.0998 15.05608769984616
SEEDS II (CO-66)        
1 32791U 08021J   26166.96044239  .00015094  00000+0  47997-3 0  9998
2 32791  97.7511 164.7995 0001225   8.5431 351.5831 15.32715926987108
SWISSCUBE               
1 35932U 09051B   26167.27923453  .00000836  00000+0  17480-3 0  9993
2 35932  98.4037  75.1516 0005898 206.1840 153.9064 14.62480239889025
BEESAT-1                
1 35933U 09051C   26167.28819711  .00000696  00000+0  14946-3 0  9994
2 35933  98.3965  74.7982 0004172 220.4264 139.6627 14.61719271889059
ITUPSAT1                
1 35935U 09051E   26167.27829992  .00000645  00000+0  14315-3 0  9991
2 35935  98.4049  73.9810 0006227 237.3413 122.7187 14.60439597888605
TISAT 1                 
1 36799U 10035E   26166.81052109  .00016585  00000+0  54469-3 0  9995
2 36799  98.0713 113.2374 0001201 169.6486 190.4779 15.31663542867496
AEROCUBE 4.5A           
1 38767U 12048K   26166.97135025  .00410252  74313-4  10174-2 0  9990
2 38767  64.6243  31.3351 0019594 223.4007 136.5613 15.95272059372462
STRAND-1                
1 39090U 13009E   26167.22054666  .00000219  00000+0  88132-4 0  9994
2 39090  98.3921 347.4787 0007680 228.5958 131.4569 14.37162791696927
BRITE-AUSTRIA           
1 39091U 13009F   26167.09370097  .00000142  00000+0  62862-4 0  9996
2 39091  98.3994 346.5565 0009106 240.1939 119.8342 14.36541737696891
NEE-01 PEGASO           
1 39151U 13018B   26167.12676225  .00002170  00000+0  21086-3 0  9994
2 39151  98.1216 311.2415 0013007 162.8121 197.3541 14.93655276710542
POPACS 2                
1 39269U 13055E   26166.36468816  .00010853  00000+0  18376-3 0  9990
2 39269  80.9902 146.2784 0416885 199.6373 158.8380 14.91171919662944
POPACS 3                
1 39270U 13055F   26166.47030025  .00008012  00000+0  18804-3 0  9991
2 39270  81.0017 231.0485 0552307  75.2193 290.9504 14.56095763638307
ZACUBE-1 (TSHEPISOSAT)  
1 39417U 13066B   26167.14083163  .00002688  00000+0  21090-3 0  9996
2 39417  97.8082 129.4722 0040689 251.3313 108.3491 15.01184047680575
WNISAT-1                
1 39423U 13066H   26167.31895789  .00000730  00000+0  14184-3 0  9999
2 39423  97.7200 316.5369 0161929 234.3472 124.2560 14.58060959666605
TRITON-1                
1 39427U 13066M   26167.28265112  .00001043  00000+0  13076-3 0  9997
2 39427  97.8254  77.1109 0088445 236.9544 122.3151 14.81701991673955
GOMX-1                  
1 39430U 13066Q   26167.30075272  .00001511  00000+0  23141-3 0  9994
2 39430  97.6477   7.8198 0130178  80.3496 281.2389 14.69457255669781
CUBEBUG-2 (LO-74)       
1 39440U 13066AA  26167.12537931  .00003994  00000+0  37024-3 0  9992
2 39440  97.8908 116.0990 0058456  32.4816 327.9979 14.93754109676830
NEE-02 KRYSAOR          
1 39441U 13066AB  26166.52650133  .00002075  00000+0  23065-3 0  9995
2 39441  97.8896 105.7532 0067689  75.5443 285.3271 14.86612031675959
FUNCUBE-1 (AO-73)       
1 39444U 13066AE  26167.19478169  .00005705  00000+0  35517-3 0  9997
2 39444  97.8274 138.6199 0035559 204.3953 155.5593 15.09480360679510
UWE-3                   
1 39446U 13066AG  26166.41095872  .00003615  00000+0  31229-3 0  9993
2 39446  97.8693 122.4726 0047855 327.0614  32.7628 14.97011844677317
BRITE-CA1 (TORONTO)     
1 40020U 14033L   26167.29039437  .00000607  00000+0  99119-4 0  9991
2 40020  97.9738 296.2348 0077229 279.9438  79.3059 14.72675645642084
DUCHIFAT-1              
1 40021U 14033M   26166.42257015  .00087303  00000+0  90897-3 0  9991
2 40021  98.0462 225.3358 0003280 119.3803 240.7782 15.64281009655477
NANOSATC-BR1            
1 40024U 14033Q   26167.02931394  .00014660  00000+0  48537-3 0  9990
2 40024  98.0716 199.3145 0004305 165.7271 194.4091 15.31427281653800
QB50P1                  
1 40025U 14033R   26167.29329031  .00006542  00000+0  32293-3 0  9991
2 40025  98.0960 178.3767 0007718 218.6881 141.3799 15.18249784652894
QB50P2                  
1 40032U 14033Y   26167.24156154  .00005316  00000+0  28731-3 0  9998
2 40032  98.0746 164.0629 0007926 165.9632 194.1821 15.15148302652525
PERSEUS-M2              
1 40037U 14033AD  26167.32714479  .00001217  00000+0  11536-3 0  9993
2 40037  97.9958 117.8504 0010872 307.1864  52.8363 14.95506392650659
