OBJECT_NAME,OBJECT_ID,EPOCH,MEAN_MOTION,ECCENTRICITY,INCLINATION,RA_OF_ASC_NODE,ARG_OF_PERICENTER,MEAN_ANOMALY,EPHEMERIS_TYPE,CLASSIFICATION_TYPE,NORAD_CAT_ID,ELEMENT_SET_NO,REV_AT_EPOCH,BSTAR,MEAN_MOTION_DOT,MEAN_MOTION_DDOT
CUTE-1 (CO-55),2003-031E,2026-06-16T06:20:48.283872,14.24335232,.00094679,98.6736,175.8349,180.6624,179.4544,0,U,27844,999,19154,.12106764E-3,.236E-5,0
CUBESAT XI-IV (CO-57),2003-031J,2026-06-15T23:18:41.130432,14.23620242,.00089443,98.6765,175.2591,200.7616,159.3200,0,U,27848,999,19120,.10701839E-3,.2E-5,0
CUBESAT XI-V,2005-043F,2026-06-15T21:47:12.547104,14.72628612,.0013554,98.2984,322.5028,204.9214,155.1340,0,U,28895,999,10156,.19838E-3,.1212E-4,0
CUTE-1.7+APD II (CO-65),2008-021C,2026-06-16T06:06:21.195072,15.09444415,.00098828,97.8271,148.6535,42.0213,318.1772,0,U,32785,999,98505,.24216284E-3,.3812E-4,0
CANX-2,2008-021H,2026-06-15T21:25:19.953120,15.05608769,.0011445,97.8632,146.6449,54.1289,306.0998,0,U,32790,999,98461,.28757E-3,.4088E-4,0
SEEDS II (CO-66),2008-021J,2026-06-15T23:03:02.222496,15.32715926,.00012258,97.7511,164.7995,8.5431,351.5831,0,U,32791,999,98710,.47997359E-3,.15094E-3,0
SWISSCUBE,2009-051B,2026-06-16T06:42:05.863392,14.62480239,.00058983,98.4037,75.1516,206.1840,153.9064,0,U,35932,999,88902,.17480141E-3,.836E-5,0
BEESAT-1,2009-051C,2026-06-16T06:55:00.230304,14.61719271,.00041728,98.3965,74.7982,220.4264,139.6627,0,U,35933,999,88905,.14946323E-3,.696E-5,0
ITUPSAT1,2009-051E,2026-06-16T06:40:45.113088,14.60439597,.00062273,98.4049,73.9810,237.3413,122.7187,0,U,35935,999,88860,.14314844E-3,.645E-5,0
TISAT 1,2010-035E,2026-06-15T19:27:09.022176,15.31663542,.00012018,98.0713,113.2374,169.6486,190.4779,0,U,36799,999,86749,.54469447E-3,.16585E-3,0
AEROCUBE 4.5A,2012-048K,2026-06-15T23:18:44.661600,15.95272059,.00195948,64.6243,31.3351,223.4007,136.5613,0,U,38767,999,37246,.1017409E-2,.410252E-2,.74312563E-4
STRAND-1,2013-009E,2026-06-16T05:17:35.231424,14.37162791,.00076806,98.3921,347.4787,228.5958,131.4569,0,U,39090,999,69692,.88131644E-4,.219E-5,0
BRITE-AUSTRIA,2013-009F,2026-06-16T02:14:55.763808,14.36541737,.00091065,98.3994,346.5565,240.1939,119.8342,0,U,39091,999,69689,.6286246E-4,.142E-5,0
NEE-01 PEGASO,2013-018B,2026-06-16T03:02:32.258400,14.93655276,.00130073,98.1216,311.2415,162.8121,197.3541,0,U,39151,999,71054,.21086304E-3,.217E-4,0
POPACS 2,2013-055E,2026-06-15T08:45:09.057024,14.91171919,.04168853,80.9902,146.2784,199.6373,158.8380,0,U,39269,999,66294,.18375527E-3,.10853E-3,0
POPACS 3,2013-055F,2026-06-15T11:17:13.941600,14.56095763,.05523075,81.0017,231.0485,75.2193,290.9504,0,U,39270,999,63830,.18804419E-3,.8012E-4,0
ZACUBE-1 (TSHEPISOSAT),2013-066B,2026-06-16T03:22:47.852832,15.01184047,.00406891,97.8082,129.4722,251.3313,108.3491,0,U,39417,999,68057,.21090228E-3,.2688E-4,0
WNISAT-1,2013-066H,2026-06-16T07:39:17.961696,14.58060959,.01619294,97.7200,316.5369,234.3472,124.2560,0,U,39423,999,66660,.14184223E-3,.73E-5,0
TRITON-1,2013-066M,2026-06-16T06:47:01.056768,14.81701991,.0088445,97.8254,77.1109,236.9544,122.3151,0,U,39427,999,67395,.13075581E-3,.1043E-4,0
GOMX-1,2013-066Q,2026-06-16T07:13:05.035008,14.69457255,.01301785,97.6477,7.8198,80.3496,281.2389,0,U,39430,999,66978,.23141286E-3,.1511E-4,0
CUBEBUG-2 (LO-74),2013-066AA,2026-06-16T03:00:32.772384,14.93754109,.00584561,97.8908,116.0990,32.4816,327.9979,0,U,39440,999,67683,.37024098E-3,.3994E-4,0
NEE-02 KRYSAOR,2013-066AB,2026-06-15T12:38:09.714912,14.86612031,.00676896,97.8896,105.7532,75.5443,285.3271,0,U,39441,999,67595,.23065442E-3,.2075E-4,0
FUNCUBE-1 (AO-73),2013-066AE,2026-06-16T04:40:29.138016,15.09480360,.00355598,97.8274,138.6199,204.3953,155.5593,0,U,39444,999,67951,.35517351E-3,.5705E-4,0
UWE-3,2013-066AG,2026-06-15T09:51:46.833408,14.97011844,.00478551,97.8693,122.4726,327.0614,32.7628,0,U,39446,999,67731,.31228687E-3,.3615E-4,0
BRITE-CA1 (TORONTO),2014-033L,2026-06-16T06:58:10.073568,14.72675645,.00772295,97.9738,296.2348,279.9438,79.3059,0,U,40020,999,64208,.99119203E-4,.607E-5,0
DUCHIFAT-1,2014-033M,2026-06-15T10:08:30.060960,15.64281009,.000328,98.0462,225.3358,119.3803,240.7782,0,U,40021,999,65547,.90896671E-3,.87303E-3,0
NANOSATC-BR1,2014-033Q,2026-06-16T00:42:12.724416,15.31427281,.00043059,98.0716,199.3145,165.7271,194.4091,0,U,40024,999,65380,.48536692E-3,.1466E-3,0
QB50P1,2014-033R,2026-06-16T07:02:20.282784,15.18249784,.00077186,98.0960,178.3767,218.6881,141.3799,0,U,40025,999,65289,.32293011E-3,.6542E-4,0
QB50P2,2014-033Y,2026-06-16T05:47:50.917056,15.15148302,.00079264,98.0746,164.0629,165.9632,194.1821,0,U,40032,999,65252,.28731407E-3,.5316E-4,0
PERSEUS-M2,2014-033AD,2026-06-16T07:51:05.309856,14.95506392,.00108727,97.9958,117.8504,307.1864,52.8363,0,U,40037,999,65065,.11536141E-3,.1217E-4,0
